     2.100          NAVIGATION                              RINEX VERSION / TYPE
fic2rin                                 01/19/2013 00:03:39 PGM / RUN BY / DATE
                                                            END OF HEADER
14 13  1 18 12  0  0.0  .219688285142D-03  .454747350886D-12  .000000000000D+00
     .140000000000D+02  .191875000000D+02  .424874840600D-08 -.197583169780D+01
     .103004276752D-05  .671635463368D-02  .499747693539D-05  .515369662094D+04
     .475200000000D+06  .121071934700D-06  .307791659140D+01 -.931322574615D-07
     .976035093997D+00  .293031250000D+03 -.201716148299D+01 -.798783272530D-08
    -.148577617426D-09  .100000000000D+01  .172300000000D+04  .000000000000D+00
     .240000000000D+01  .000000000000D+00 -.884756445885D-08  .140000000000D+02
     .468006000000D+06  .400000000000D+01
15 13  1 18 12  0  0.0 -.105524901301D-03 -.113686837722D-11  .000000000000D+00
     .101000000000D+03  .226875000000D+02  .500735143343D-08 -.243104667743D+01
     .119581818581D-05  .524102628697D-02  .482797622681D-05  .515369971466D+04
     .475200000000D+06 -.149011611938D-07  .298237155959D+01 -.409781932831D-07
     .942672991188D+00  .279312500000D+03  .112799439578D+00 -.840249285470D-08
    -.907180644858D-10  .100000000000D+01  .172300000000D+04  .000000000000D+00
     .240000000000D+01  .000000000000D+00 -.102445483208D-07  .101000000000D+03
     .468006000000D+06  .400000000000D+01
16 13  1 18 12  0  0.0 -.251862686127D-03 -.227373675443D-12  .000000000000D+00
     .210000000000D+02 -.137500000000D+02  .400016662300D-08 -.796259807874D+00
    -.756233930588D-06  .683844147716D-02  .785104930401D-05  .515356822205D+04
     .475200000000D+06  .111758708954D-06 -.113254932288D+01 -.856816768646D-07
     .983226670537D+00  .235125000000D+03  .289550679462D-01 -.787032783074D-08
     .389659088008D-09  .100000000000D+01  .172300000000D+04  .000000000000D+00
     .240000000000D+01  .000000000000D+00 -.977888703346D-08  .210000000000D+02
     .468006000000D+06  .400000000000D+01
17 13  1 18 12  0  0.0  .584963709116D-04 -.363797880709D-11  .000000000000D+00
     .760000000000D+02 -.368750000000D+02  .469983862429D-08 -.180149033165D+01
    -.184401869774D-05  .804150558542D-02  .594556331635D-05  .515378280258D+04
     .475200000000D+06  .113621354103D-06 -.943362079731D-01  .111758708954D-07
     .964834880537D+00  .264812500000D+03 -.225578985226D+01 -.805140680198D-08
     .165721188667D-09  .100000000000D+01  .172300000000D+04  .000000000000D+00
     .240000000000D+01  .000000000000D+00 -.107102096081D-07  .760000000000D+02
     .468006000000D+06  .400000000000D+01
18 13  1 18 12  0  0.0  .234972219914D-03  .181898940355D-11  .000000000000D+00
     .240000000000D+02  .706562500000D+02  .542451166697D-08 -.294621102323D+00
     .373460352421D-05  .136671595974D-01  .789761543274D-05  .515375999451D+04
     .475200000000D+06 -.223517417908D-07  .196491619453D+01  .189989805222D-06
     .927707034950D+00  .211531250000D+03 -.213157537994D+01 -.874893585687D-08
    -.300012496725D-10  .100000000000D+01  .172300000000D+04  .000000000000D+00
     .240000000000D+01  .000000000000D+00 -.107102096081D-07  .240000000000D+02
     .468006000000D+06  .400000000000D+01
19 13  1 18 12  0  0.0 -.340917613357D-03 -.329691829393D-11  .000000000000D+00
     .750000000000D+02 -.348125000000D+02  .480377152494D-08 -.249884311277D+01
    -.191666185856D-05  .881419307552D-02  .667758285999D-05  .515365194511D+04
     .475200000000D+06 -.838190317154D-07 -.420313626607D-01 -.176951289177D-06
     .962120791530D+00  .253187500000D+03  .275535987168D+00 -.808212236712D-08
     .106075847056D-09  .100000000000D+01  .172300000000D+04  .000000000000D+00
     .240000000000D+01  .000000000000D+00 -.144354999065D-07  .750000000000D+02
     .468006000000D+06  .400000000000D+01
21 13  1 18 12  0  0.0 -.275288242847D-03 -.227373675443D-11  .000000000000D+00
     .210000000000D+02 -.104062500000D+02  .543094050619D-08  .808168765644D+00
    -.277534127235D-06  .196930764941D-01  .961497426033D-05  .515374413300D+04
     .475200000000D+06 -.175088644028D-06  .915850385279D+00  .154599547386D-06
     .931436103835D+00  .184937500000D+03 -.218688620445D+01 -.869179061940D-08
    -.374301305437D-09  .100000000000D+01  .172300000000D+04  .000000000000D+00
     .240000000000D+01  .000000000000D+00 -.111758708954D-07  .210000000000D+02
     .468006000000D+06  .400000000000D+01
22 13  1 18 12  0  0.0  .156090594828D-03  .909494701773D-12  .000000000000D+00
     .500000000000D+01  .704687500000D+02  .535808032841D-08 -.949500251388D+00
     .353157520294D-05  .615889788605D-02  .800192356110D-05  .515366515541D+04
     .475200000000D+06  .000000000000D+00  .196779666999D+01  .158324837685D-06
     .925447458498D+00  .206406250000D+03 -.203170140822D+01 -.855178478759D-08
    -.735744932444D-10  .100000000000D+01  .172300000000D+04  .000000000000D+00
     .240000000000D+01  .000000000000D+00 -.172294676304D-07  .500000000000D+01
     .468006000000D+06  .400000000000D+01
23 13  1 18 12  0  0.0  .122718047351D-03 -.375166564481D-11  .000000000000D+00
     .760000000000D+02  .316250000000D+02  .468305221078D-08 -.292708317770D+01
     .155717134476D-05  .815109279938D-02  .481307506561D-05  .515376266289D+04
     .475200000000D+06 -.124797224998D-06  .302158134095D+01 -.316649675369D-07
     .957563574961D+00  .285718750000D+03 -.291646419037D+01 -.818784105645D-08
    -.975040614355D-10  .100000000000D+01  .172300000000D+04  .000000000000D+00
     .240000000000D+01  .000000000000D+00 -.204890966415D-07  .760000000000D+02
     .468006000000D+06  .400000000000D+01
24 13  1 18 12  0  0.0  .454485416412D-06 -.682121026330D-12  .000000000000D+00
     .530000000000D+02 -.180625000000D+02  .440982654412D-08  .283067063401D+01
    -.892207026482D-06  .535783474334D-03  .733695924282D-05  .515371156502D+04
     .475200000000D+06 -.558793544769D-08 -.223543989228D+01  .186264514923D-08
     .959398932965D+00  .235156250000D+03 -.478506328052D-01 -.810640909305D-08
    -.378587198248D-10  .100000000000D+01  .172300000000D+04  .000000000000D+00
     .240000000000D+01  .000000000000D+00  .419095158577D-08  .530000000000D+02
     .468006000000D+06  .400000000000D+01
25 13  1 18 12  0  0.0  .637155026197D-04  .261479726760D-11  .000000000000D+00
     .830000000000D+02 -.143750000000D+01  .430089343519D-08  .502094479142D+00
    -.212341547012D-06  .203169253655D-02  .779703259468D-05  .515360404205D+04
     .475200000000D+06 -.745058059692D-08 -.118766642486D+01  .689178705215D-07
     .971314081805D+00  .237281250000D+03  .578355968516D+00 -.801783397497D-08
     .318941856637D-09  .100000000000D+01  .172300000000D+04  .000000000000D+00
     .240000000000D+01  .000000000000D+00  .512227416039D-08  .830000000000D+02
     .468006000000D+06  .400000000000D+01
26 13  1 18 12  0  0.0 -.134082511067D-03  .138697942020D-10  .000000000000D+00
     .630000000000D+02  .167812500000D+02  .400766693541D-08 -.303681147678D+01
     .853091478348D-06  .210561925778D-01  .497698783875D-05  .515365954590D+04
     .475200000000D+06  .266358256340D-06  .309934791701D+01 -.171363353729D-06
     .980799433433D+00  .291625000000D+03  .121479412233D+01 -.765460455929D-08
    -.120719314158D-09  .100000000000D+01  .172300000000D+04  .000000000000D+00
     .240000000000D+01  .000000000000D+00 -.605359673500D-08  .630000000000D+02
     .468006000000D+06  .400000000000D+01
27 13  1 18 12  0  0.0 -.193971674889D-03  .363797880709D-11  .000000000000D+00
     .290000000000D+02 -.111562500000D+02  .546022744039D-08 -.891782364875D+00
    -.484287738800D-06  .573073106352D-02  .805966556072D-05  .515362775612D+04
     .475200000000D+06  .763684511185D-07 -.117164422421D+01  .124797224998D-06
     .976176092967D+00  .230937500000D+03  .844424221978D+00 -.797890378194D-08
     .335728270144D-09  .100000000000D+01  .172300000000D+04  .000000000000D+00
     .240000000000D+01  .630000000000D+02 -.190921127796D-07  .290000000000D+02
     .468006000000D+06  .400000000000D+01
28 13  1 18 12  0  0.0  .224542338401D-03  .341060513165D-11  .000000000000D+00
     .180000000000D+02 -.259375000000D+01  .411731435981D-08 -.103655455787D+01
     .238418579102D-06  .186288638506D-01  .765733420849D-05  .515363779640D+04
     .475200000000D+06 -.124797224998D-06 -.112613036458D+01  .379979610443D-06
     .981643695160D+00  .247093750000D+03 -.179213102504D+01 -.805247827518D-08
     .323227749447D-09  .100000000000D+01  .172300000000D+04  .000000000000D+00
     .240000000000D+01  .000000000000D+00 -.107102096081D-07  .180000000000D+02
     .468006000000D+06  .400000000000D+01
29 13  1 18 12  0  0.0  .399105716497D-03  .386535248253D-11  .000000000000D+00
     .130000000000D+02 -.385625000000D+02  .477091301339D-08  .110230443079D+01
    -.197999179363D-05  .185744883493D-02  .642053782940D-05  .515370996666D+04
     .475200000000D+06  .931322574615D-08 -.856360498281D-01 -.651925802231D-07
     .965437497456D+00  .261187500000D+03 -.111809418984D+01 -.814676791701D-08
     .700029159024D-10  .100000000000D+01  .172300000000D+04  .000000000000D+00
     .240000000000D+01  .000000000000D+00 -.931322574615D-08  .130000000000D+02
     .468006000000D+06  .400000000000D+01
31 13  1 18 12  0  0.0  .298191327602D-03  .181898940355D-11  .000000000000D+00
     .300000000000D+01 -.364687500000D+02  .385944647572D-08  .164546775442D+01
    -.179558992386D-05  .814305106178D-02  .746361911297D-05  .515381398010D+04
     .475200000000D+06  .160187482834D-06 -.220510861926D+01  .800937414169D-07
     .980818378222D+00  .242437500000D+03 -.810951172926D+00 -.777318092704D-08
    -.141791620476D-09  .100000000000D+01  .172300000000D+04  .000000000000D+00
     .240000000000D+01  .000000000000D+00 -.135041773319D-07  .300000000000D+01
     .468006000000D+06  .400000000000D+01
